NORAD_CAT_ID,OBJECT_NAME,OBJECT_TYPE,EPOCH,MEAN_MOTION,ECCENTRICITY,INCLINATION,RA_OF_ASC_NODE,ARG_OF_PERICENTER,MEAN_ANOMALY,BSTAR,MEAN_MOTION_DOT,MEAN_MOTION_DDOT,TLE_LINE0,TLE_LINE1,TLE_LINE2,SEMIMAJOR_AXIS,PERIOD,APOGEE,PERIGEE,DECAYED
53804.0,STARLINK-4729,PAYLOAD,2023-09-21 10:46:02,15.08858083,0.0001475,53.2183,340.2456,112.7763,247.3385,-0.00023928,-4.096e-05,0.0,0 STARLINK-4729,1 53804U 22111AH  23264.44864094 -.00004096  00000-0 -23928-3 0  9991,2 53804  53.2183 340.2456 0001475 112.7763 247.3385 15.08858083 57170,6917.825,95.436,540.71,538.67,0.0
53804.0,STARLINK-4729,PAYLOAD,2023-09-21 12:21:25,15.0884313,0.0001301,53.2191,339.9493,105.335,254.7786,-1.4124e-05,-5.13e-06,0.0,0 STARLINK-4729,1 53804U 22111AH  23264.51488296 -.00000513  00000-0 -14124-4 0  9994,2 53804  53.2191 339.9493 0001301 105.3350 254.7786 15.08843130 57997,6917.871,95.437,540.636,538.836,0.0
53804.0,STARLINK-4729,PAYLOAD,2023-09-21 21:53:44,15.08834014,0.0001475,53.2188,338.1643,112.5058,247.609,0.00012226,1.658e-05,0.0,0 STARLINK-4729,1 53804U 22111AH  23264.91232320  .00001658  00000-0  12226-3 0  9992,2 53804  53.2188 338.1643 0001475 112.5058 247.6090 15.08834014 58056,6917.899,95.438,540.784,538.743,0.0
53804.0,STARLINK-4729,PAYLOAD,2023-09-22 04:15:17,15.0882441,0.0001499,53.2195,336.9766,113.263,246.8521,0.00022724,3.329e-05,0.0,0 STARLINK-4729,1 53804U 22111AH  23265.17728539  .00003329  00000-0  22724-3 0  9994,2 53804  53.2195 336.9766 0001499 113.2630 246.8521 15.08824410 57289,6917.928,95.439,540.83,538.756,0.0
53804.0,STARLINK-4729,PAYLOAD,2023-09-22 12:12:13,15.08830498,0.0001467,53.2196,335.4891,105.3523,254.7632,0.00014015,1.943e-05,0.0,0 STARLINK-4729,1 53804U 22111AH  23265.50848838  .00001943  00000-0  14015-3 0  9990,2 53804  53.2196 335.4891 0001467 105.3523 254.7632 15.08830498 58141,6917.909,95.438,540.789,538.76,0.0
53804.0,STARLINK-4729,PAYLOAD,2023-09-22 21:44:32,15.08838072,0.0001466,53.2194,333.7054,102.2628,257.8528,6.855e-05,8.03e-06,0.0,0 STARLINK-4729,1 53804U 22111AH  23265.90592709  .00000803  00000-0  68550-4 0  9995,2 53804  53.2194 333.7054 0001466 102.2628 257.8528 15.08838072 58203,6917.886,95.438,540.765,538.737,0.0
53804.0,STARLINK-4729,PAYLOAD,2023-09-22 23:19:55,15.08838901,0.0001578,53.2182,333.4079,105.6572,254.4594,7.0791e-05,8.39e-06,0.0,0 STARLINK-4729,1 53804U 22111AH  23265.97216609  .00000839  00000-0  70791-4 0  9993,2 53804  53.2182 333.4079 0001578 105.6572 254.4594 15.08838901 57401,6917.884,95.438,540.84,538.657,0.0
53804.0,STARLINK-4729,PAYLOAD,2023-09-23 12:02:59,15.08845333,0.0001246,53.218,331.0291,92.5773,267.5362,5.297e-05,5.55e-06,0.0,0 STARLINK-4729,1 53804U 22111AH  23266.50208301  .00000555  00000-0  52970-4 0  9997,2 53804  53.2180 331.0291 0001246  92.5773 267.5362 15.08845333 58291,6917.864,95.437,540.591,538.867,0.0
53804.0,STARLINK-4729,PAYLOAD,2023-09-24 03:56:51,15.08840007,0.0001429,53.2188,328.0555,88.3432,271.7724,8.6003e-06,-1.51e-06,0.0,0 STARLINK-4729,1 53804U 22111AH  23267.16448642 -.00000151  00000-0  86003-5 0  9992,2 53804  53.2188 328.0555 0001429  88.3432 271.7724 15.08840007 57589,6917.88,95.438,540.734,538.757,0.0
53804.0,STARLINK-4729,PAYLOAD,2023-09-24 11:53:47,15.08845864,0.0001387,53.2177,326.5668,86.5722,273.5429,-1.5621e-06,-3.13e-06,0.0,0 STARLINK-4729,1 53804U 22111AH  23267.49568291 -.00000313  00000-0 -15621-5 0  9990,2 53804  53.2177 326.5668 0001387  86.5722 273.5429 15.08845864 58444,6917.862,95.437,540.687,538.768,0.0
53804.0,STARLINK-4729,PAYLOAD,2023-09-25 10:09:11,15.08836226,0.0001635,53.2172,322.4052,96.0668,264.051,-2.0131e-05,-6.08e-06,0.0,0 STARLINK-4729,1 53804U 22111AH  23268.42305030 -.00000608  00000-0 -20131-4 0  9992,2 53804  53.2172 322.4052 0001635  96.0668 264.0510 15.08836226 57775,6917.892,95.438,540.888,538.626,0.0
53804.0,STARLINK-4729,PAYLOAD,2023-09-26 09:59:57,15.08847561,0.000154,53.2173,317.9438,82.1865,277.9302,3.8741e-05,3.29e-06,0.0,0 STARLINK-4729,1 53804U 22111AH  23269.41664084  .00000329  00000-0  38741-4 0  9993,2 53804  53.2173 317.9438 0001540  82.1865 277.9302 15.08847561 57926,6917.857,95.437,540.788,538.657,0.0
53804.0,STARLINK-4729,PAYLOAD,2023-09-27 09:50:45,15.08841669,0.0001473,53.2175,313.4828,94.8439,265.2721,1.839e-05,5e-08,0.0,0 STARLINK-4729,1 53804U 22111AH  23270.41024498  .00000005  00000-0  18390-4 0  9993,2 53804  53.2175 313.4828 0001473  94.8439 265.2721 15.08841669 58079,6917.875,95.437,540.759,538.721,0.0
53804.0,STARLINK-4729,PAYLOAD,2023-09-28 01:44:37,15.0884019,0.0001544,53.2178,310.5147,103.7854,256.331,-0.00011097,-2.054e-05,0.0,0 STARLINK-4729,1 53804U 22111AH  23271.07265266 -.00002054  00000-0 -11097-3 0  9990,2 53804  53.2178 310.5147 0001544 103.7854 256.3310 15.08840190 58178,6917.88,95.438,540.813,538.677,0.0
53804.0,STARLINK-4729,PAYLOAD,2023-09-28 09:41:33,15.08834529,0.0001469,53.2174,309.023,94.6403,265.4757,-0.00014435,-2.584e-05,0.0,0 STARLINK-4729,1 53804U 22111AH  23271.40385902 -.00002584  00000-0 -14435-3 0  9994,2 53804  53.2174 309.0230 0001469  94.6403 265.4757 15.08834529 58225,6917.897,95.438,540.778,538.746,0.0
53804.0,STARLINK-4729,PAYLOAD,2023-09-29 07:56:56,15.08841851,0.0001396,53.2171,304.8589,90.6878,269.4274,5.3075e-05,5.57e-06,0.0,0 STARLINK-4729,1 53804U 22111AH  23272.33120989  .00000557  00000-0  53075-4 0  9999,2 53804  53.2171 304.8589 0001396  90.6878 269.4274 15.08841851 58362,6917.875,95.437,540.705,538.774,0.0
53804.0,STARLINK-4729,PAYLOAD,2023-09-29 12:43:05,15.08846561,0.0001439,53.2169,303.9665,89.9877,270.128,8.5889e-05,1.079e-05,0.0,0 STARLINK-4729,1 53804U 22111AH  23272.52992528  .00001079  00000-0  85889-4 0  9994,2 53804  53.2169 303.9665 0001439  89.9877 270.1280 15.08846561 59205,6917.86,95.437,540.721,538.73,0.0
53804.0,STARLINK-4729,PAYLOAD,2023-09-30 09:23:06,15.08842984,0.0001476,53.217,300.0986,85.999,274.117,9.8518e-05,1.28e-05,0.0,0 STARLINK-4729,1 53804U 22111AH  23273.39104720  .00001280  00000-0  98518-4 0  9996,2 53804  53.2170 300.0986 0001476  85.9990 274.1170 15.08842984 58525,6917.871,95.437,540.757,538.715,0.0
53804.0,STARLINK-4729,PAYLOAD,2023-09-30 23:41:35,15.08830733,0.0001577,53.2172,297.4239,99.991,260.126,-0.00010723,-1.994e-05,0.0,0 STARLINK-4729,1 53804U 22111AH  23273.98722047 -.00001994  00000-0 -10723-3 0  9994,2 53804  53.2172 297.4239 0001577  99.9910 260.1260 15.08830733 58610,6917.909,95.438,540.865,538.683,0.0
53804.0,STARLINK-4729,PAYLOAD,2023-10-01 10:49:17,15.08843379,0.0001572,53.2167,295.341,89.5315,270.5857,-4.467e-05,-9.99e-06,0.0,0 STARLINK-4729,1 53804U 22111AH  23274.45089145 -.00000999  00000-0 -44670-4 0  9995,2 53804  53.2167 295.3410 0001572  89.5315 270.5857 15.08843379 58685,6917.87,95.437,540.823,538.648,0.0
53804.0,STARLINK-4729,PAYLOAD,2023-10-01 18:46:13,15.08835022,0.0001631,53.2178,293.8534,92.0927,268.0252,-8.1431e-05,-1.584e-05,0.0,0 STARLINK-4729,1 53804U 22111AH  23274.78209824 -.00001584  00000-0 -81431-4 0  9996,2 53804  53.2178 293.8534 0001631  92.0927 268.0252 15.08835022 58734,6917.896,95.438,540.889,538.632,0.0
53804.0,STARLINK-4729,PAYLOAD,2023-10-02 18:36:59,15.08844074,0.0001491,53.2162,289.3952,91.0793,269.0369,-4.5094e-05,-1.006e-05,0.0,0 STARLINK-4729,1 53804U 22111AH  23275.77569197 -.00001006  00000-0 -45094-4 0  9992,2 53804  53.2162 289.3952 0001491  91.0793 269.0369 15.08844074 58888,6917.868,95.437,540.764,538.701,0.0
53804.0,STARLINK-4729,PAYLOAD,2023-10-03 07:20:04,15.0884193,0.000162,53.2165,287.0157,103.1391,256.9782,0.00010253,1.344e-05,0.0,0 STARLINK-4729,1 53804U 22111AH  23276.30560841  .00001344  00000-0  10253-3 0  9990,2 53804  53.2165 287.0157 0001620 103.1391 256.9782 15.08841930 59777,6917.874,95.437,540.86,538.619,0.0
53804.0,STARLINK-4729,PAYLOAD,2023-10-04 07:10:52,15.0883373,0.0001639,53.2155,282.555,96.1187,263.9992,5.4211e-05,5.75e-06,0.0,0 STARLINK-4729,1 53804U 22111AH  23277.29921759  .00000575  00000-0  54211-4 0  9996,2 53804  53.2155 282.5550 0001639  96.1187 263.9992 15.08833730 59115,6917.9,95.438,540.898,538.631,0.0
53804.0,STARLINK-4729,PAYLOAD,2023-10-05 07:01:39,15.08842532,0.0001615,53.2174,278.0985,91.4944,268.6233,1.1088e-05,-1.12e-06,0.0,0 STARLINK-4729,1 53804U 22111AH  23278.29281533 -.00000112  00000-0  11088-4 0  9999,2 53804  53.2174 278.0985 0001615  91.4944 268.6233 15.08842532 59267,6917.873,95.437,540.855,538.62,0.0
53804.0,STARLINK-4729,PAYLOAD,2023-10-05 16:33:58,15.08841896,0.0001556,53.216,276.3119,91.3423,268.7748,-6.9487e-05,-1.394e-05,0.0,0 STARLINK-4729,1 53804U 22111AH  23278.69025710 -.00001394  00000-0 -69487-4 0  9996,2 53804  53.2160 276.3119 0001556  91.3423 268.7748 15.08841896 60139,6917.875,95.437,540.816,538.663,0.0
53804.0,STARLINK-4729,PAYLOAD,2023-10-06 00:30:54,15.08832677,0.0001643,53.2164,274.8259,98.3647,261.7532,-1.306e-05,-4.96e-06,0.0,0 STARLINK-4729,1 53804U 22111AH  23279.02146272 -.00000496  00000-0 -13060-4 0  9999,2 53804  53.2164 274.8259 0001643  98.3647 261.7532 15.08832677 59378,6917.903,95.438,540.904,538.631,0.0
53804.0,STARLINK-4729,PAYLOAD,2023-10-06 10:03:12,15.0883844,0.0001605,53.2166,273.0396,101.2342,258.8831,2.4189e-05,9.7e-07,0.0,0 STARLINK-4729,1 53804U 22111AH  23279.41889864  .00000097  00000-0  24189-4 0  9992,2 53804  53.2166 273.0396 0001605 101.2342 258.8831 15.08838440 60248,6917.885,95.438,540.86,538.64,0.0
53804.0,STARLINK-4729,PAYLOAD,2023-10-06 16:24:45,15.08836102,0.0001452,53.2161,271.8486,94.5507,265.5651,3.3541e-05,2.46e-06,0.0,0 STARLINK-4729,1 53804U 22111AH  23279.68385994  .00000246  00000-0  33541-4 0  9994,2 53804  53.2161 271.8486 0001452  94.5507 265.5651 15.08836102 60288,6917.892,95.438,540.762,538.753,0.0
53804.0,STARLINK-4729,PAYLOAD,2023-10-07 06:43:14,15.08836714,0.000159,53.2173,269.1761,98.8469,261.2703,-1.4139e-05,-5.13e-06,0.0,0 STARLINK-4729,1 53804U 22111AH  23280.28002430 -.00000513  00000-0 -14139-4 0  9994,2 53804  53.2173 269.1761 0001590  98.8469 261.2703 15.08836714 59563,6917.89,95.438,540.855,538.655,0.0
